[{"OBJECT_NAME":"ONEWEB-0202","OBJECT_ID":"2021-031Q","EPOCH":"2026-03-09T17:14:30.664608","MEAN_MOTION":13.14505493,"ECCENTRICITY":0.00022561,"INCLINATION":87.8983,"RA_OF_ASC_NODE":309.555,"ARG_OF_PERICENTER":92.3368,"MEAN_ANOMALY":267.802,"EPHEMERIS_TYPE":0,"CLASSIFICATION_TYPE":"U","NORAD_CAT_ID":48224,"ELEMENT_SET_NO":999,"REV_AT_EPOCH":23529,"BSTAR":0.00017342203,"MEAN_MOTION_DOT":7.7e-7,"MEAN_MOTION_DDOT":0},{"OBJECT_NAME":"SL-14 DEB","OBJECT_ID":"1991-056E","EPOCH":"2026-03-09T20:54:45.656064","MEAN_MOTION":13.15668367,"ECCENTRICITY":0.00108749,"INCLINATION":82.5565,"RA_OF_ASC_NODE":213.308,"ARG_OF_PERICENTER":91.0131,"MEAN_ANOMALY":269.2237,"EPHEMERIS_TYPE":0,"CLASSIFICATION_TYPE":"U","NORAD_CAT_ID":45268,"ELEMENT_SET_NO":999,"REV_AT_EPOCH":29150,"BSTAR":-0.00014585934,"MEAN_MOTION_DOT":-4.3e-7,"MEAN_MOTION_DDOT":0}]
